{
  "type": "FeatureCollection",
  "features": [
    {
      "type": "Feature",
      "properties": {
        "norad_id": 41599,
        "name": "CARTOSAT-2C",
        "group": "resource",
        "lat": 72.38822340087745,
        "lon": -103.61053749583301,
        "alt_km": 498.54370245012615,
        "timestamp": "2025-12-20T18:51:31.375350+00:00",
        "meta_object_name": "CARTOSAT-2C",
        "meta_object_id": "2016-040A",
        "meta_epoch": "2025-12-20T15:13:59.653344",
        "meta_mean_motion": 15.19184999,
        "meta_eccentricity": 0.00110671,
        "meta_inclination": 97.476,
        "meta_ra_of_asc_node": 51.8043,
        "meta_arg_of_pericenter": 38.0546,
        "meta_mean_anomaly": 322.1469,
        "meta_ephemeris_type": 0,
        "meta_classification_type": "U",
        "meta_norad_cat_id": 41599,
        "meta_element_set_no": 999,
        "meta_rev_at_epoch": 52660,
        "meta_bstar": 0.00027115363,
        "meta_mean_motion_dot": 5.645e-05,
        "meta_mean_motion_ddot": 0,
        "tle_line1": "1 41599U 16040A   25354.63471821  .00005645  00000+0  27115-3 0  9998",
        "tle_line2": "2 41599  97.4760  51.8043 0011067  38.0546 322.1469 15.19184999526607"
      },
      "geometry": {
        "type": "Point",
        "coordinates": [
          -103.61053749583301,
          72.38822340087745
        ]
      }
    },
    {
      "type": "Feature",
      "properties": {
        "norad_id": 41601,
        "name": "SKYSAT-C1",
        "group": "resource",
        "lat": -9.760584059346606,
        "lon": -149.86173315268684,
        "alt_km": 472.9068603393853,
        "timestamp": "2025-12-20T18:51:31.375365+00:00",
        "meta_object_name": "SKYSAT-C1",
        "meta_object_id": "2016-040C",
        "meta_epoch": "2025-12-20T13:19:58.535040",
        "meta_mean_motion": 15.32720909,
        "meta_eccentricity": 0.00014701,
        "meta_inclination": 96.9811,
        "meta_ra_of_asc_node": 31.1288,
        "meta_arg_of_pericenter": 346.7095,
        "meta_mean_anomaly": 13.4109,
        "meta_ephemeris_type": 0,
        "meta_classification_type": "U",
        "meta_norad_cat_id": 41601,
        "meta_element_set_no": 999,
        "meta_rev_at_epoch": 53047,
        "meta_bstar": 0.00018788513,
        "meta_mean_motion_dot": 5.865e-05,
        "meta_mean_motion_ddot": 0,
        "tle_line1": "1 41601U 16040C   25354.55553860  .00005865  00000+0  18789-3 0  9998",
        "tle_line2": "2 41601  96.9811  31.1288 0001470 346.7095  13.4109 15.32720909530472"
      },
      "geometry": {
        "type": "Point",
        "coordinates": [
          -149.86173315268684,
          -9.760584059346606
        ]
      }
    },
    {
      "type": "Feature",
      "properties": {
        "norad_id": 41603,
        "name": "LAPAN-A3",
        "group": "resource",
        "lat": -57.00756012990955,
        "lon": 3.186053251262677,
        "alt_km": 472.0213675454652,
        "timestamp": "2025-12-20T18:51:31.375376+00:00",
        "meta_object_name": "LAPAN-A3",
        "meta_object_id": "2016-040E",
        "meta_epoch": "2025-12-20T14:24:21.308832",
        "meta_mean_motion": 15.31609848,
        "meta_eccentricity": 0.00089311,
        "meta_inclination": 97.1424,
        "meta_ra_of_asc_node": 351.8706,
        "meta_arg_of_pericenter": 301.9491,
        "meta_mean_anomaly": 58.0882,
        "meta_ephemeris_type": 0,
        "meta_classification_type": "U",
        "meta_norad_cat_id": 41603,
        "meta_element_set_no": 999,
        "meta_rev_at_epoch": 52746,
        "meta_bstar": 9.1759708e-05,
        "meta_mean_motion_dot": 2.729e-05,
        "meta_mean_motion_ddot": 0,
        "tle_line1": "1 41603U 16040E   25354.60024663  .00002729  00000+0  91760-4 0  9997",
        "tle_line2": "2 41603  97.1424 351.8706 0008931 301.9491  58.0882 15.31609848527461"
      },
      "geometry": {
        "type": "Point",
        "coordinates": [
          3.186053251262677,
          -57.00756012990955
        ]
      }
    },
    {
      "type": "Feature",
      "properties": {
        "norad_id": 41604,
        "name": "BIROS",
        "group": "resource",
        "lat": 50.880034900930205,
        "lon": 17.781352066709886,
        "alt_km": 289.69984934358854,
        "timestamp": "2025-12-20T18:51:31.375387+00:00",
        "meta_object_name": "BIROS",
        "meta_object_id": "2016-040F",
        "meta_epoch": "2025-12-20T12:36:42.537312",
        "meta_mean_motion": 15.92640057,
        "meta_eccentricity": 0.0003516,
        "meta_inclination": 97.0689,
        "meta_ra_of_asc_node": 26.2866,
        "meta_arg_of_pericenter": 133.472,
        "meta_mean_anomaly": 226.6848,
        "meta_ephemeris_type": 0,
        "meta_classification_type": "U",
        "meta_norad_cat_id": 41604,
        "meta_element_set_no": 999,
        "meta_rev_at_epoch": 52996,
        "meta_bstar": 0.00051898279,
        "meta_mean_motion_dot": 0.00176018,
        "meta_mean_motion_ddot": 1.3507377e-05,
        "tle_line1": "1 41604U 16040F   25354.52549233  .00176018  13507-4  51898-3 0  9995",
        "tle_line2": "2 41604  97.0689  26.2866 0003516 133.4720 226.6848 15.92640057529967"
      },
      "geometry": {
        "type": "Point",
        "coordinates": [
          17.781352066709886,
          50.880034900930205
        ]
      }
    },
    {
      "type": "Feature",
      "properties": {
        "norad_id": 41727,
        "name": "GAOFEN-3",
        "group": "resource",
        "lat": 15.246164566958385,
        "lon": -2.0596851076432294,
        "alt_km": 751.2934030753131,
        "timestamp": "2025-12-20T18:51:31.375397+00:00",
        "meta_object_name": "GAOFEN-3",
        "meta_object_id": "2016-049A",
        "meta_epoch": "2025-12-20T15:27:26.330400",
        "meta_mean_motion": 14.42215197,
        "meta_eccentricity": 0.00012413,
        "meta_inclination": 98.4031,
        "meta_ra_of_asc_node": 0.1098,
        "meta_arg_of_pericenter": 56.804,
        "meta_mean_anomaly": 303.3269,
        "meta_ephemeris_type": 0,
        "meta_classification_type": "U",
        "meta_norad_cat_id": 41727,
        "meta_element_set_no": 999,
        "meta_rev_at_epoch": 49291,
        "meta_bstar": 3.072448e-06,
        "meta_mean_motion_dot": -3.3e-07,
        "meta_mean_motion_ddot": 0,
        "tle_line1": "1 41727U 16049A   25354.64405475 -.00000033  00000+0  30724-5 0  9992",
        "tle_line2": "2 41727  98.4031   0.1098 0001241  56.8040 303.3269 14.42215197492914"
      },
      "geometry": {
        "type": "Point",
        "coordinates": [
          -2.0596851076432294,
          15.246164566958385
        ]
      }
    },
    {
      "type": "Feature",
      "properties": {
        "norad_id": 41771,
        "name": "SKYSAT-C4",
        "group": "resource",
        "lat": 44.94482007204554,
        "lon": 12.604151915810037,
        "alt_km": 434.86514098239786,
        "timestamp": "2025-12-20T18:51:31.375407+00:00",
        "meta_object_name": "SKYSAT-C4",
        "meta_object_id": "2016-058B",
        "meta_epoch": "2025-12-20T12:26:05.054784",
        "meta_mean_motion": 15.42456679,
        "meta_eccentricity": 0.00021748,
        "meta_inclination": 96.936,
        "meta_ra_of_asc_node": 19.3283,
        "meta_arg_of_pericenter": 127.8827,
        "meta_mean_anomaly": 232.2618,
        "meta_ephemeris_type": 0,
        "meta_classification_type": "U",
        "meta_norad_cat_id": 41771,
        "meta_element_set_no": 999,
        "meta_rev_at_epoch": 51787,
        "meta_bstar": 0.00023302346,
        "meta_mean_motion_dot": 0.00010007,
        "meta_mean_motion_ddot": 0,
        "tle_line1": "1 41771U 16058B   25354.51811406  .00010007  00000+0  23302-3 0  9995",
        "tle_line2": "2 41771  96.9360  19.3283 0002174 127.8827 232.2618 15.42456679517871"
      },
      "geometry": {
        "type": "Point",
        "coordinates": [
          12.604151915810037,
          44.94482007204554
        ]
      }
    },
    {
      "type": "Feature",
      "properties": {
        "norad_id": 41772,
        "name": "SKYSAT-C5",
        "group": "resource",
        "lat": 78.66630311722608,
        "lon": -0.08781288880867791,
        "alt_km": 459.1325169479769,
        "timestamp": "2025-12-20T18:51:31.375417+00:00",
        "meta_object_name": "SKYSAT-C5",
        "meta_object_id": "2016-058C",
        "meta_epoch": "2025-12-20T13:48:34.292160",
        "meta_mean_motion": 15.34006197,
        "meta_eccentricity": 0.00037892,
        "meta_inclination": 97.0746,
        "meta_ra_of_asc_node": 38,
        "meta_arg_of_pericenter": 254.6411,
        "meta_mean_anomaly": 105.4414,
        "meta_ephemeris_type": 0,
        "meta_classification_type": "U",
        "meta_norad_cat_id": 41772,
        "meta_element_set_no": 999,
        "meta_rev_at_epoch": 51636,
        "meta_bstar": 0.0001828781,
        "meta_mean_motion_dot": 5.943e-05,
        "meta_mean_motion_ddot": 0,
        "tle_line1": "1 41772U 16058C   25354.57539690  .00005943  00000+0  18288-3 0  9994",
        "tle_line2": "2 41772  97.0746  38.0000 0003789 254.6411 105.4414 15.34006197516363"
      },
      "geometry": {
        "type": "Point",
        "coordinates": [
          -0.08781288880867791,
          78.66630311722608
        ]
      }
    }
  ]
}